NORAD_CAT_ID,OBJECT_NAME,OBJECT_TYPE,EPOCH,MEAN_MOTION,ECCENTRICITY,INCLINATION,RA_OF_ASC_NODE,ARG_OF_PERICENTER,MEAN_ANOMALY,BSTAR,MEAN_MOTION_DOT,MEAN_MOTION_DDOT,TLE_LINE0,TLE_LINE1,TLE_LINE2,SEMIMAJOR_AXIS,PERIOD,APOGEE,PERIGEE,DECAYED
54097.0,STARLINK-5197,PAYLOAD,2023-11-11 19:24:23,15.08838635,0.0001255,53.2159,159.824,79.822,280.2914,4.2881e-06,-2.2e-06,0.0,0 STARLINK-5197,1 54097U 22136AY  23315.80860847 -.00000220  00000-0  42881-5 0  9997,2 54097  53.2159 159.8240 0001255  79.8220 280.2914 15.08838635 59650,6917.885,95.438,540.618,538.881,0.0
54097.0,STARLINK-5197,PAYLOAD,2023-11-11 20:59:46,15.08842722,0.0001225,53.2157,159.5256,77.1899,282.923,2.0285e-05,3.5e-07,0.0,0 STARLINK-5197,1 54097U 22136AY  23315.87484475  .00000035  00000-0  20285-4 0  9999,2 54097  53.2157 159.5256 0001225  77.1899 282.9230 15.08842722 59193,6917.872,95.437,540.585,538.89,0.0
54097.0,STARLINK-5197,PAYLOAD,2023-11-12 06:32:05,15.08840637,0.0001291,53.2167,157.7442,88.8093,271.3047,3.3799e-05,2.5e-06,0.0,0 STARLINK-5197,1 54097U 22136AY  23316.27228585  .00000250  00000-0  33799-4 0  9995,2 54097  53.2167 157.7442 0001291  88.8093 271.3047 15.08840637 59257,6917.878,95.438,540.637,538.85,0.0
54097.0,STARLINK-5197,PAYLOAD,2023-11-12 20:50:33,15.08841729,0.000127,53.2165,155.0667,86.3271,273.7867,-1.4557e-05,-5.2e-06,0.0,0 STARLINK-5197,1 54097U 22136AY  23316.86844689 -.00000520  00000-0 -14557-4 0  9992,2 54097  53.2165 155.0667 0001270  86.3271 273.7867 15.08841729 59342,6917.875,95.437,540.619,538.862,0.0
54097.0,STARLINK-5197,PAYLOAD,2023-11-12 22:25:56,15.0884269,0.0001281,53.2165,154.7695,85.616,274.4979,-7.6789e-06,-4.1e-06,0.0,0 STARLINK-5197,1 54097U 22136AY  23316.93468610 -.00000410  00000-0 -76789-5 0  9990,2 54097  53.2165 154.7695 0001281  85.6160 274.4979 15.08842690 59823,6917.872,95.437,540.623,538.851,0.0
54097.0,STARLINK-5197,PAYLOAD,2023-11-13 22:16:43,15.08845568,0.0001337,53.2166,150.3101,90.3027,269.8118,0.00011408,1.528e-05,0.0,0 STARLINK-5197,1 54097U 22136AY  23317.92828069  .00001528  00000-0  11408-3 0  9992,2 54097  53.2166 150.3101 0001337  90.3027 269.8118 15.08845568 59500,6917.863,95.437,540.653,538.803,0.0
54097.0,STARLINK-5197,PAYLOAD,2023-11-14 06:13:39,15.08838588,0.0001371,53.2164,148.8233,87.0675,273.0474,4.9838e-05,5.05e-06,0.0,0 STARLINK-5197,1 54097U 22136AY  23318.25948664  .00000505  00000-0  49838-4 0  9996,2 54097  53.2164 148.8233 0001371  87.0675 273.0474 15.08838588 60021,6917.885,95.438,540.698,538.801,0.0
54097.0,STARLINK-5197,PAYLOAD,2023-11-14 12:35:12,15.08837528,0.0001373,53.2157,147.6346,85.693,274.4219,5.9422e-05,6.58e-06,0.0,0 STARLINK-5197,1 54097U 22136AY  23318.52444753  .00000658  00000-0  59422-4 0  9995,2 54097  53.2157 147.6346 0001373  85.6930 274.4219 15.08837528 59590,6917.888,95.438,540.703,538.803,0.0
54097.0,STARLINK-5197,PAYLOAD,2023-11-14 18:56:44,15.08837325,0.0001414,53.216,146.4449,85.8391,274.2763,5.0712e-05,5.19e-06,0.0,0 STARLINK-5197,1 54097U 22136AY  23318.78940840  .00000519  00000-0  50712-4 0  9990,2 54097  53.2160 146.4449 0001414  85.8391 274.2763 15.08837325 59636,6917.889,95.438,540.732,538.775,0.0
54097.0,STARLINK-5197,PAYLOAD,2023-11-15 12:25:59,15.08842323,0.0001758,53.214,143.1727,86.6763,273.443,5.246e-05,5.47e-06,0.0,0 STARLINK-5197,1 54097U 22136AY  23319.51804431  .00000547  00000-0  52460-4 0  9990,2 54097  53.2140 143.1727 0001758  86.6763 273.4430 15.08842323 60212,6917.873,95.437,540.954,538.522,0.0
54097.0,STARLINK-5197,PAYLOAD,2023-11-15 18:47:31,15.08845841,0.0001625,53.2125,141.9817,91.778,268.3398,7.6704e-05,9.33e-06,0.0,0 STARLINK-5197,1 54097U 22136AY  23319.78300011  .00000933  00000-0  76704-4 0  9990,2 54097  53.2125 141.9817 0001625  91.7780 268.3398 15.08845841 59784,6917.863,95.437,540.852,538.603,0.0
54097.0,STARLINK-5197,PAYLOAD,2023-11-16 12:16:46,15.08837864,0.0001359,53.2136,138.71,96.8245,263.2901,6.3825e-05,7.28e-06,0.0,0 STARLINK-5197,1 54097U 22136AY  23320.51164461  .00000728  00000-0  63825-4 0  9992,2 54097  53.2136 138.7100 0001359  96.8245 263.2901 15.08837864 59893,6917.887,95.438,540.692,538.812,0.0
54097.0,STARLINK-5197,PAYLOAD,2023-11-16 18:38:18,15.08837213,0.0001384,53.2144,137.5215,92.8918,267.2233,4.9926e-05,5.07e-06,0.0,0 STARLINK-5197,1 54097U 22136AY  23320.77660565  .00000507  00000-0  49926-4 0  9997,2 54097  53.2144 137.5215 0001384  92.8918 267.2233 15.08837213 60406,6917.889,95.438,540.711,538.796,0.0
54097.0,STARLINK-5197,PAYLOAD,2023-11-16 21:49:05,15.08837763,0.0001464,53.2167,136.9285,93.4445,266.6715,3.8816e-05,3.3e-06,0.0,0 STARLINK-5197,1 54097U 22136AY  23320.90908596  .00000330  00000-0  38816-4 0  9991,2 54097  53.2167 136.9285 0001464  93.4445 266.6715 15.08837763 59958,6917.887,95.438,540.765,538.739,0.0
54097.0,STARLINK-5197,PAYLOAD,2023-11-17 21:39:52,15.08839033,0.0001443,53.216,132.4681,92.8139,267.3018,7.5891e-06,-1.67e-06,0.0,0 STARLINK-5197,1 54097U 22136AY  23321.90268611 -.00000167  00000-0  75891-5 0  9993,2 54097  53.2160 132.4681 0001443  92.8139 267.3018 15.08839033 60107,6917.883,95.438,540.747,538.75,0.0
54097.0,STARLINK-5197,PAYLOAD,2023-11-18 04:01:24,15.08835313,0.0001497,53.217,131.2786,92.3677,267.7487,2.6048e-06,-2.47e-06,0.0,0 STARLINK-5197,1 54097U 22136AY  23322.16764909 -.00000247  00000-0  26048-5 0  9992,2 54097  53.2170 131.2786 0001497  92.3677 267.7487 15.08835313 60619,6917.895,95.438,540.795,538.724,0.0
54097.0,STARLINK-5197,PAYLOAD,2023-11-18 10:22:57,15.0883509,0.000135,53.2153,130.0886,91.581,268.5337,4.8895e-05,4.9e-06,0.0,0 STARLINK-5197,1 54097U 22136AY  23322.43260822  .00000490  00000-0  48895-4 0  9999,2 54097  53.2153 130.0886 0001350  91.5810 268.5337 15.08835090 60183,6917.895,95.438,540.694,538.826,0.0
54097.0,STARLINK-5197,PAYLOAD,2023-11-18 18:19:53,15.08835568,0.0001352,53.2153,128.6017,91.4191,268.6956,4.7823e-05,4.73e-06,0.0,0 STARLINK-5197,1 54097U 22136AY  23322.76380880  .00000473  00000-0  47823-4 0  9993,2 54097  53.2153 128.6017 0001352  91.4191 268.6956 15.08835568 60239,6917.894,95.438,540.694,538.824,0.0
54097.0,STARLINK-5197,PAYLOAD,2023-11-19 03:52:11,15.08836155,0.000135,53.2157,126.8175,90.1053,270.0094,3.9962e-05,3.48e-06,0.0,0 STARLINK-5197,1 54097U 22136AY  23323.16124910  .00000348  00000-0  39962-4 0  9994,2 54097  53.2157 126.8175 0001350  90.1053 270.0094 15.08836155 60298,6917.892,95.438,540.691,538.823,0.0
54097.0,STARLINK-5197,PAYLOAD,2023-11-19 18:10:40,15.08838015,0.0001358,53.2172,124.1413,89.5562,270.5586,5.8264e-05,6.39e-06,0.0,0 STARLINK-5197,1 54097U 22136AY  23323.75740913  .00000639  00000-0  58264-4 0  9995,2 54097  53.2172 124.1413 0001358  89.5562 270.5586 15.08838015 60856,6917.886,95.438,540.691,538.812,0.0
54097.0,STARLINK-5197,PAYLOAD,2023-11-19 21:21:26,15.08837936,0.0001367,53.2172,123.5466,89.2054,270.9095,5.4835e-05,5.85e-06,0.0,0 STARLINK-5197,1 54097U 22136AY  23323.88988908  .00000585  00000-0  54835-4 0  9997,2 54097  53.2172 123.5466 0001367  89.2054 270.9095 15.08837936 60401,6917.887,95.438,540.697,538.806,0.0
54097.0,STARLINK-5197,PAYLOAD,2023-11-20 11:39:54,15.08838801,0.0001356,53.2174,120.8704,87.9346,272.1802,6.1473e-05,6.91e-06,0.0,0 STARLINK-5197,1 54097U 22136AY  23324.48604982  .00000691  00000-0  61473-4 0  9995,2 54097  53.2174 120.8704 0001356  87.9346 272.1802 15.08838801 60496,6917.884,95.438,540.687,538.811,0.0
54097.0,STARLINK-5197,PAYLOAD,2023-11-20 18:01:27,15.08842289,0.0001354,53.2175,119.6809,86.7107,273.404,7.3204e-05,8.77e-06,0.0,0 STARLINK-5197,1 54097U 22136AY  23324.75100748  .00000877  00000-0  73204-4 0  9997,2 54097  53.2175 119.6809 0001354  86.7107 273.4040 15.08842289 60537,6917.873,95.437,540.675,538.802,0.0
54097.0,STARLINK-5197,PAYLOAD,2023-11-21 03:33:45,15.08840233,0.0001364,53.2178,117.897,89.0766,271.0382,5.7835e-05,6.33e-06,0.0,0 STARLINK-5197,1 54097U 22136AY  23325.14844888  .00000633  00000-0  57835-4 0  9993,2 54097  53.2178 117.8970 0001364  89.0766 271.0382 15.08840233 61066,6917.88,95.438,540.688,538.801,0.0
54097.0,STARLINK-5197,PAYLOAD,2023-11-21 09:55:18,15.08839607,0.0001376,53.2177,116.7076,89.473,270.642,5.0122e-05,5.1e-06,0.0,0 STARLINK-5197,1 54097U 22136AY  23325.41341005  .00000510  00000-0  50122-4 0  9992,2 54097  53.2177 116.7076 0001376  89.4730 270.6420 15.08839607 60631,6917.882,95.438,540.698,538.795,0.0
54097.0,STARLINK-5197,PAYLOAD,2023-11-21 17:52:13,15.08844536,0.0001376,53.2177,115.2208,89.0033,271.1116,7.0253e-05,8.3e-06,0.0,0 STARLINK-5197,1 54097U 22136AY  23325.74460646  .00000830  00000-0  70253-4 0  9993,2 54097  53.2177 115.2208 0001376  89.0033 271.1116 15.08844536 60684,6917.867,95.437,540.683,538.78,0.0
54097.0,STARLINK-5197,PAYLOAD,2023-11-22 09:46:05,15.08844072,0.0001261,53.2176,112.2474,98.1466,261.9669,8.4744e-05,1.061e-05,0.0,0 STARLINK-5197,1 54097U 22136AY  23326.40700486  .00001061  00000-0  84744-4 0  9993,2 54097  53.2176 112.2474 0001261  98.1466 261.9669 15.08844072 61258,6917.868,95.437,540.605,538.861,0.0
54097.0,STARLINK-5197,PAYLOAD,2023-11-22 14:32:14,15.08841346,0.0001197,53.2177,111.3562,89.8303,270.2826,0.00019456,2.81e-05,0.0,0 STARLINK-5197,1 54097U 22136AY  23326.60572392  .00002810  00000-0  19456-3 0  9998,2 54097  53.2177 111.3562 0001197  89.8303 270.2826 15.08841346 60812,6917.876,95.437,540.569,538.913,0.0
54097.0,STARLINK-5197,PAYLOAD,2023-11-22 16:07:37,15.08850928,0.0001367,53.2172,111.058,89.3482,270.7667,0.0001089,1.446e-05,0.0,0 STARLINK-5197,1 54097U 22136AY  23326.67195955  .00001446  00000-0  10890-3 0  9998,2 54097  53.2172 111.0580 0001367  89.3482 270.7667 15.08850928 60821,6917.847,95.437,540.658,538.766,0.0
54097.0,STARLINK-5197,PAYLOAD,2023-11-23 09:36:52,15.08839454,0.0001437,53.2176,107.7875,92.4533,267.6624,3.2594e-05,2.31e-06,0.0,0 STARLINK-5197,1 54097U 22136AY  23327.40060894  .00000231  00000-0  32594-4 0  9990,2 54097  53.2176 107.7875 0001437  92.4533 267.6624 15.08839454 61408,6917.882,95.438,540.741,538.753,0.0
